[{"OBJECT_NAME":"STARLINK-32143","OBJECT_ID":"2024-132U","EPOCH":"2026-03-09T06:36:13.118976","MEAN_MOTION":15.30188061,"ECCENTRICITY":0.00012891,"INCLINATION":53.1612,"RA_OF_ASC_NODE":54.5906,"ARG_OF_PERICENTER":100.8585,"MEAN_ANOMALY":259.2561,"EPHEMERIS_TYPE":0,"CLASSIFICATION_TYPE":"U","NORAD_CAT_ID":60296,"ELEMENT_SET_NO":999,"REV_AT_EPOCH":9149,"BSTAR":-1.2130628e-5,"MEAN_MOTION_DOT":-7.18e-6,"MEAN_MOTION_DDOT":0},{"OBJECT_NAME":"EDISON-1","OBJECT_ID":"2025-009B","EPOCH":"2026-03-09T19:16:13.822464","MEAN_MOTION":15.29042904,"ECCENTRICITY":0.00043285,"INCLINATION":97.4042,"RA_OF_ASC_NODE":151.6286,"ARG_OF_PERICENTER":306.4185,"MEAN_ANOMALY":53.6655,"EPHEMERIS_TYPE":0,"CLASSIFICATION_TYPE":"U","NORAD_CAT_ID":62610,"ELEMENT_SET_NO":999,"REV_AT_EPOCH":6375,"BSTAR":0.00052814963,"MEAN_MOTION_DOT":0.00014835,"MEAN_MOTION_DDOT":0}]
